BANDWAGON-2 OBJECT D    
1 62380U 24247D   26068.52261192  .00011259  00000+0  40119-3 0  9993
2 62380  44.9954 115.6710 0003488 351.1453   8.9368 15.29076102 67732
STARLINK-35562          
1 66063U 25235F   26068.47747469  .00039818  00000+0  13487-2 0  9991
2 66063  53.1590 246.6330 0001349  86.7091 273.4064 15.30214583 22886
